{
  "type": "FeatureCollection",
  "features": [
    {
      "type": "Feature",
      "properties": {
        "norad_id": 37781,
        "name": "HAIYANG-2A",
        "group": "resource",
        "lat": -14.936891124700109,
        "lon": 179.666214692034,
        "alt_km": 973.3355655586129,
        "timestamp": "2025-12-27T11:23:19.534237+00:00",
        "meta_object_name": "HAIYANG-2A",
        "meta_object_id": "2011-043A",
        "meta_epoch": "2025-12-27T03:28:47.631072",
        "meta_mean_motion": 13.78835516,
        "meta_eccentricity": 0.0001561,
        "meta_inclination": 99.3384,
        "meta_ra_of_asc_node": 1.8576,
        "meta_arg_of_pericenter": 65.178,
        "meta_mean_anomaly": 294.9533,
        "meta_ephemeris_type": 0,
        "meta_classification_type": "U",
        "meta_norad_cat_id": 37781,
        "meta_element_set_no": 999,
        "meta_rev_at_epoch": 72297,
        "meta_bstar": -0.00016351,
        "meta_mean_motion_dot": -2.11e-06,
        "meta_mean_motion_ddot": 0,
        "tle_line1": "1 37781U 11043A   25361.14499573 -.00000211  00000+0 -16351-3 0  9998",
        "tle_line2": "2 37781  99.3384   1.8576 0001561  65.1780 294.9533 13.78835516722970"
      },
      "geometry": {
        "type": "Point",
        "coordinates": [
          179.666214692034,
          -14.936891124700109
        ]
      }
    },
    {
      "type": "Feature",
      "properties": {
        "norad_id": 37791,
        "name": "RASAT",
        "group": "resource",
        "lat": -10.79633998481788,
        "lon": 92.06179330138103,
        "alt_km": 659.1991055105455,
        "timestamp": "2025-12-27T11:23:19.534247+00:00",
        "meta_object_name": "RASAT",
        "meta_object_id": "2011-044D",
        "meta_epoch": "2025-12-27T05:10:25.790592",
        "meta_mean_motion": 14.67928501,
        "meta_eccentricity": 0.0021165,
        "meta_inclination": 98.0637,
        "meta_ra_of_asc_node": 90.2576,
        "meta_arg_of_pericenter": 21.1274,
        "meta_mean_anomaly": 40.5728,
        "meta_ephemeris_type": 0,
        "meta_classification_type": "U",
        "meta_norad_cat_id": 37791,
        "meta_element_set_no": 999,
        "meta_rev_at_epoch": 76795,
        "meta_bstar": 7.4868e-05,
        "meta_mean_motion_dot": 3.81e-06,
        "meta_mean_motion_ddot": 0,
        "tle_line1": "1 37791U 11044D   25361.21557628  .00000381  00000+0  74868-4 0  9998",
        "tle_line2": "2 37791  98.0637  90.2576 0021165  21.1274  40.5728 14.67928501767956"
      },
      "geometry": {
        "type": "Point",
        "coordinates": [
          92.06179330138103,
          -10.79633998481788
        ]
      }
    },
    {
      "type": "Feature",
      "properties": {
        "norad_id": 37841,
        "name": "SRMSAT",
        "group": "resource",
        "lat": -15.331012671167228,
        "lon": -112.21541896801082,
        "alt_km": 857.4547965150741,
        "timestamp": "2025-12-27T11:23:19.534258+00:00",
        "meta_object_name": "SRMSAT",
        "meta_object_id": "2011-058D",
        "meta_epoch": "2025-12-27T03:47:53.066112",
        "meta_mean_motion": 14.11516416,
        "meta_eccentricity": 0.0011979,
        "meta_inclination": 19.9733,
        "meta_ra_of_asc_node": 20.69,
        "meta_arg_of_pericenter": 110.9492,
        "meta_mean_anomaly": 309.0242,
        "meta_ephemeris_type": 0,
        "meta_classification_type": "U",
        "meta_norad_cat_id": 37841,
        "meta_element_set_no": 999,
        "meta_rev_at_epoch": 73348,
        "meta_bstar": 0.00010652,
        "meta_mean_motion_dot": 4.61e-06,
        "meta_mean_motion_ddot": 0,
        "tle_line1": "1 37841U 11058D   25361.15825308  .00000461  00000+0  10652-3 0  9994",
        "tle_line2": "2 37841  19.9733  20.6900 0011979 110.9492 309.0242 14.11516416733482"
      },
      "geometry": {
        "type": "Point",
        "coordinates": [
          -112.21541896801082,
          -15.331012671167228
        ]
      }
    },
    {
      "type": "Feature",
      "properties": {
        "norad_id": 38012,
        "name": "PLEIADES 1A",
        "group": "resource",
        "lat": 9.037710435443952,
        "lon": 72.70324899877386,
        "alt_km": 699.2359766201234,
        "timestamp": "2025-12-27T11:23:19.534268+00:00",
        "meta_object_name": "PLEIADES 1A",
        "meta_object_id": "2011-076F",
        "meta_epoch": "2025-12-27T05:08:57.623712",
        "meta_mean_motion": 14.58574828,
        "meta_eccentricity": 0.0001033,
        "meta_inclination": 98.1802,
        "meta_ra_of_asc_node": 73.7584,
        "meta_arg_of_pericenter": 78.0053,
        "meta_mean_anomaly": 6.9637,
        "meta_ephemeris_type": 0,
        "meta_classification_type": "U",
        "meta_norad_cat_id": 38012,
        "meta_element_set_no": 999,
        "meta_rev_at_epoch": 74692,
        "meta_bstar": 0.00010685,
        "meta_mean_motion_dot": 4.51e-06,
        "meta_mean_motion_ddot": 0,
        "tle_line1": "1 38012U 11076F   25361.21455583  .00000451  00000+0  10685-3 0  9991",
        "tle_line2": "2 38012  98.1802  73.7584 0001033  78.0053   6.9637 14.58574828746929"
      },
      "geometry": {
        "type": "Point",
        "coordinates": [
          72.70324899877386,
          9.037710435443952
        ]
      }
    },
    {
      "type": "Feature",
      "properties": {
        "norad_id": 38038,
        "name": "ZIYUAN 1-02C (ZY 1-02C)",
        "group": "resource",
        "lat": -81.49333032672877,
        "lon": 164.6394441711953,
        "alt_km": 777.6668810927704,
        "timestamp": "2025-12-27T11:23:19.534278+00:00",
        "meta_object_name": "ZIYUAN 1-02C (ZY 1-02C)",
        "meta_object_id": "2011-079A",
        "meta_epoch": "2025-12-27T05:33:42.645312",
        "meta_mean_motion": 14.3802845,
        "meta_eccentricity": 0.0007577,
        "meta_inclination": 98.431,
        "meta_ra_of_asc_node": 66.9769,
        "meta_arg_of_pericenter": 100.946,
        "meta_mean_anomaly": 351.775,
        "meta_ephemeris_type": 0,
        "meta_classification_type": "U",
        "meta_norad_cat_id": 38038,
        "meta_element_set_no": 999,
        "meta_rev_at_epoch": 73449,
        "meta_bstar": 0.00019426,
        "meta_mean_motion_dot": 5.45e-06,
        "meta_mean_motion_ddot": 0,
        "tle_line1": "1 38038U 11079A   25361.23174358  .00000545  00000+0  19426-3 0  9998",
        "tle_line2": "2 38038  98.4310  66.9769 0007577 100.9460 351.7750 14.38028450734498"
      },
      "geometry": {
        "type": "Point",
        "coordinates": [
          164.6394441711953,
          -81.49333032672877
        ]
      }
    },
    {
      "type": "Feature",
      "properties": {
        "norad_id": 38338,
        "name": "ARIRANG-3 (KOMPSAT-3)",
        "group": "resource",
        "lat": 71.95544811685758,
        "lon": -70.5655015680713,
        "alt_km": 683.4449768297591,
        "timestamp": "2025-12-27T11:23:19.534288+00:00",
        "meta_object_name": "ARIRANG-3 (KOMPSAT-3)",
        "meta_object_id": "2012-025B",
        "meta_epoch": "2025-12-27T04:28:48.694080",
        "meta_mean_motion": 14.61731951,
        "meta_eccentricity": 0.0004639,
        "meta_inclination": 98.3343,
        "meta_ra_of_asc_node": 315.8865,
        "meta_arg_of_pericenter": 286.1139,
        "meta_mean_anomaly": 73.9551,
        "meta_ephemeris_type": 0,
        "meta_classification_type": "U",
        "meta_norad_cat_id": 38338,
        "meta_element_set_no": 999,
        "meta_rev_at_epoch": 72621,
        "meta_bstar": 0.00015462,
        "meta_mean_motion_dot": 7.22e-06,
        "meta_mean_motion_ddot": 0,
        "tle_line1": "1 38338U 12025B   25361.18667470  .00000722  00000+0  15462-3 0  9992",
        "tle_line2": "2 38338  98.3343 315.8865 0004639 286.1139  73.9551 14.61731951726211"
      },
      "geometry": {
        "type": "Point",
        "coordinates": [
          -70.5655015680713,
          71.95544811685758
        ]
      }
    },
    {
      "type": "Feature",
      "properties": {
        "norad_id": 38709,
        "name": "EXACTVIEW-1 (ADS-1B)",
        "group": "resource",
        "lat": -74.7151240883831,
        "lon": 145.4536141579341,
        "alt_km": 809.6395613873528,
        "timestamp": "2025-12-27T11:23:19.534299+00:00",
        "meta_object_name": "EXACTVIEW-1 (ADS-1B)",
        "meta_object_id": "2012-039C",
        "meta_epoch": "2025-12-27T01:38:24.398016",
        "meta_mean_motion": 14.24913864,
        "meta_eccentricity": 0.0010057,
        "meta_inclination": 98.964,
        "meta_ra_of_asc_node": 109.7592,
        "meta_arg_of_pericenter": 310.8783,
        "meta_mean_anomaly": 49.1524,
        "meta_ephemeris_type": 0,
        "meta_classification_type": "U",
        "meta_norad_cat_id": 38709,
        "meta_element_set_no": 999,
        "meta_rev_at_epoch": 69819,
        "meta_bstar": 0.00010051,
        "meta_mean_motion_dot": 1.88e-06,
        "meta_mean_motion_ddot": 0,
        "tle_line1": "1 38709U 12039C   25361.06833794  .00000188  00000+0  10051-3 0  9995",
        "tle_line2": "2 38709  98.9640 109.7592 0010057 310.8783  49.1524 14.24913864698191"
      },
      "geometry": {
        "type": "Point",
        "coordinates": [
          145.4536141579341,
          -74.7151240883831
        ]
      }
    }
  ]
}